[{"OBJECT_NAME":"TIANHUI 6B","OBJECT_ID":"2023-030D","EPOCH":"2026-03-09T23:26:56.388192","MEAN_MOTION":14.01332355,"ECCENTRICITY":0.00011349,"INCLINATION":99.0142,"RA_OF_ASC_NODE":78.4435,"ARG_OF_PERICENTER":126.6393,"MEAN_ANOMALY":233.4876,"EPHEMERIS_TYPE":0,"CLASSIFICATION_TYPE":"U","NORAD_CAT_ID":55839,"ELEMENT_SET_NO":999,"REV_AT_EPOCH":15349,"BSTAR":-9.0839833e-5,"MEAN_MOTION_DOT":-1.81e-6,"MEAN_MOTION_DDOT":0},{"OBJECT_NAME":"MOMO-1 (MOS-1)","OBJECT_ID":"1987-018A","EPOCH":"2026-03-09T23:53:57.251328","MEAN_MOTION":14.03190448,"ECCENTRICITY":0.00095943,"INCLINATION":98.8557,"RA_OF_ASC_NODE":121.1777,"ARG_OF_PERICENTER":106.8052,"MEAN_ANOMALY":318.4679,"EPHEMERIS_TYPE":0,"CLASSIFICATION_TYPE":"U","NORAD_CAT_ID":17527,"ELEMENT_SET_NO":999,"REV_AT_EPOCH":99615,"BSTAR":0.00011495002,"MEAN_MOTION_DOT":1.36e-6,"MEAN_MOTION_DDOT":0}]
